CCSDS_OMM_VERS = 2.0
CREATION_DATE  = 
ORIGINATOR     = 

OBJECT_NAME    = STARLINK-36571
OBJECT_ID      = 2026-016U
CENTER_NAME    = EARTH
REF_FRAME      = TEME
TIME_SYSTEM    = UTC
MEAN_ELEMENT_THEORY = SGP/SGP4

EPOCH          = 2026-02-10T23:00:14.716224
MEAN_MOTION    = 15.79185885
ECCENTRICITY   = .00008738
INCLINATION    = 97.2854
RA_OF_ASC_NODE = 101.0980
ARG_OF_PERICENTER = 104.6000
MEAN_ANOMALY   = 255.5364

EPHEMERIS_TYPE = 0
CLASSIFICATION_TYPE = U
NORAD_CAT_ID   = 67579
ELEMENT_SET_NO = 999
REV_AT_EPOCH   = 259
BSTAR          = -.52846731E-2
MEAN_MOTION_DOT = -.852744E-2
MEAN_MOTION_DDOT = 0

CCSDS_OMM_VERS = 2.0
CREATION_DATE  = 
ORIGINATOR     = 

OBJECT_NAME    = STARLINK-36612
OBJECT_ID      = 2026-016V
CENTER_NAME    = EARTH
REF_FRAME      = TEME
TIME_SYSTEM    = UTC
MEAN_ELEMENT_THEORY = SGP/SGP4

EPOCH          = 2026-02-10T21:27:02.431296
MEAN_MOTION    = 15.80922020
ECCENTRICITY   = .00009664
INCLINATION    = 97.2854
RA_OF_ASC_NODE = 101.0324
ARG_OF_PERICENTER = 97.4884
MEAN_ANOMALY   = 262.6494

EPHEMERIS_TYPE = 0
CLASSIFICATION_TYPE = U
NORAD_CAT_ID   = 67580
ELEMENT_SET_NO = 999
REV_AT_EPOCH   = 258
BSTAR          = .14146934E-2
MEAN_MOTION_DOT = .281114E-2
MEAN_MOTION_DDOT = 0

CCSDS_OMM_VERS = 2.0
CREATION_DATE  = 
ORIGINATOR     = 

OBJECT_NAME    = STARLINK-36632
OBJECT_ID      = 2026-016W
CENTER_NAME    = EARTH
REF_FRAME      = TEME
TIME_SYSTEM    = UTC
MEAN_ELEMENT_THEORY = SGP/SGP4

EPOCH          = 2026-02-10T22:00:00.999936
MEAN_MOTION    = 15.80819306
ECCENTRICITY   = .0001423
INCLINATION    = 97.2871
RA_OF_ASC_NODE = 101.0651
ARG_OF_PERICENTER = 89.0973
MEAN_ANOMALY   = 59.2680

EPHEMERIS_TYPE = 0
CLASSIFICATION_TYPE = U
NORAD_CAT_ID   = 67581
ELEMENT_SET_NO = 999
REV_AT_EPOCH   = 374
BSTAR          = .88190778E-4
MEAN_MOTION_DOT = .16786E-3
MEAN_MOTION_DDOT = 0

CCSDS_OMM_VERS = 2.0
CREATION_DATE  = 
ORIGINATOR     = 

OBJECT_NAME    = STARLINK-36609
OBJECT_ID      = 2026-016X
CENTER_NAME    = EARTH
REF_FRAME      = TEME
TIME_SYSTEM    = UTC
MEAN_ELEMENT_THEORY = SGP/SGP4

EPOCH          = 2026-02-10T22:00:00.999936
MEAN_MOTION    = 15.75098273
ECCENTRICITY   = .00027463
INCLINATION    = 97.2860
RA_OF_ASC_NODE = 101.0490
ARG_OF_PERICENTER = 121.6105
MEAN_ANOMALY   = 344.8050

EPHEMERIS_TYPE = 0
CLASSIFICATION_TYPE = U
NORAD_CAT_ID   = 67582
ELEMENT_SET_NO = 999
REV_AT_EPOCH   = 374
BSTAR          = .1638198E-3
MEAN_MOTION_DOT = .24281E-3
MEAN_MOTION_DDOT = 0

CCSDS_OMM_VERS = 2.0
CREATION_DATE  = 
ORIGINATOR     = 

OBJECT_NAME    = STARLINK-36577
OBJECT_ID      = 2026-016Y
CENTER_NAME    = EARTH
REF_FRAME      = TEME
TIME_SYSTEM    = UTC
MEAN_ELEMENT_THEORY = SGP/SGP4

EPOCH          = 2026-02-10T21:24:54.741600
MEAN_MOTION    = 15.80903394
ECCENTRICITY   = .00012745
INCLINATION    = 97.2854
RA_OF_ASC_NODE = 101.0338
ARG_OF_PERICENTER = 59.1415
MEAN_ANOMALY   = 300.9979

EPHEMERIS_TYPE = 0
CLASSIFICATION_TYPE = U
NORAD_CAT_ID   = 67583
ELEMENT_SET_NO = 999
REV_AT_EPOCH   = 258
BSTAR          = .94532387E-3
MEAN_MOTION_DOT = .185574E-2
MEAN_MOTION_DDOT = 0

CCSDS_OMM_VERS = 2.0
CREATION_DATE  = 
ORIGINATOR     = 

OBJECT_NAME    = STARLINK-36419
OBJECT_ID      = 2026-016Z
CENTER_NAME    = EARTH
REF_FRAME      = TEME
TIME_SYSTEM    = UTC
MEAN_ELEMENT_THEORY = SGP/SGP4

EPOCH          = 2026-02-10T22:00:00.999936
MEAN_MOTION    = 15.80821618
ECCENTRICITY   = .00014113
INCLINATION    = 97.2857
RA_OF_ASC_NODE = 101.0705
ARG_OF_PERICENTER = 83.8595
MEAN_ANOMALY   = 77.6236

EPHEMERIS_TYPE = 0
CLASSIFICATION_TYPE = U
NORAD_CAT_ID   = 67584
ELEMENT_SET_NO = 999
REV_AT_EPOCH   = 374
BSTAR          = -.4370959E-5
MEAN_MOTION_DOT = -.979E-5
MEAN_MOTION_DDOT = 0

CCSDS_OMM_VERS = 2.0
CREATION_DATE  = 
ORIGINATOR     = 

OBJECT_NAME    = STARLINK-36560
OBJECT_ID      = 2026-016AA
CENTER_NAME    = EARTH
REF_FRAME      = TEME
TIME_SYSTEM    = UTC
MEAN_ELEMENT_THEORY = SGP/SGP4

EPOCH          = 2026-02-10T22:00:00.999936
MEAN_MOTION    = 15.80833251
ECCENTRICITY   = .00015328
INCLINATION    = 97.2857
RA_OF_ASC_NODE = 101.0740
ARG_OF_PERICENTER = 80.3330
MEAN_ANOMALY   = 90.9407

EPHEMERIS_TYPE = 0
CLASSIFICATION_TYPE = U
NORAD_CAT_ID   = 67585
ELEMENT_SET_NO = 999
REV_AT_EPOCH   = 368
BSTAR          = -.21276548E-3
MEAN_MOTION_DOT = -.4074E-3
MEAN_MOTION_DDOT = 0

CCSDS_OMM_VERS = 2.0
CREATION_DATE  = 
ORIGINATOR     = 

OBJECT_NAME    = CZ-2C DEB
OBJECT_ID      = 2026-009C
CENTER_NAME    = EARTH
REF_FRAME      = TEME
TIME_SYSTEM    = UTC
MEAN_ELEMENT_THEORY = SGP/SGP4

EPOCH          = 2026-02-10T23:23:13.365600
MEAN_MOTION    = 15.12462203
ECCENTRICITY   = .01104811
INCLINATION    = 97.2257
RA_OF_ASC_NODE = 115.3342
ARG_OF_PERICENTER = 129.5500
MEAN_ANOMALY   = 231.5558

EPHEMERIS_TYPE = 0
CLASSIFICATION_TYPE = U
NORAD_CAT_ID   = 67586
ELEMENT_SET_NO = 999
REV_AT_EPOCH   = 404
BSTAR          = .2927476E-2
MEAN_MOTION_DOT = .5944E-3
MEAN_MOTION_DDOT = 0

CCSDS_OMM_VERS = 2.0
CREATION_DATE  = 
ORIGINATOR     = 

OBJECT_NAME    = CZ-2C DEB
OBJECT_ID      = 2026-009D
CENTER_NAME    = EARTH
REF_FRAME      = TEME
TIME_SYSTEM    = UTC
MEAN_ELEMENT_THEORY = SGP/SGP4

EPOCH          = 2026-02-10T03:36:35.088768
MEAN_MOTION    = 15.13784651
ECCENTRICITY   = .01070783
INCLINATION    = 97.6723
RA_OF_ASC_NODE = 116.0060
ARG_OF_PERICENTER = 137.8627
MEAN_ANOMALY   = 223.0900

EPHEMERIS_TYPE = 0
CLASSIFICATION_TYPE = U
NORAD_CAT_ID   = 67587
ELEMENT_SET_NO = 999
REV_AT_EPOCH   = 392
BSTAR          = .19953901E-2
MEAN_MOTION_DOT = .41642E-3
MEAN_MOTION_DDOT = 0

CCSDS_OMM_VERS = 2.0
CREATION_DATE  = 
ORIGINATOR     = 

OBJECT_NAME    = NAVSTAR 85 (USA 581)
OBJECT_ID      = 2026-017A
CENTER_NAME    = EARTH
REF_FRAME      = TEME
TIME_SYSTEM    = UTC
MEAN_ELEMENT_THEORY = SGP/SGP4

EPOCH          = 2026-02-10T13:25:10.926336
MEAN_MOTION    = 2.00561450
ECCENTRICITY   = .00008482
INCLINATION    = 55.0035
RA_OF_ASC_NODE = 93.8371
ARG_OF_PERICENTER = 67.1239
MEAN_ANOMALY   = 292.9471

EPHEMERIS_TYPE = 0
CLASSIFICATION_TYPE = U
NORAD_CAT_ID   = 67588
ELEMENT_SET_NO = 999
REV_AT_EPOCH   = 42907
BSTAR          = 0
MEAN_MOTION_DOT = -.36E-6
MEAN_MOTION_DDOT = 0

CCSDS_OMM_VERS = 2.0
CREATION_DATE  = 
ORIGINATOR     = 

OBJECT_NAME    = STARLINK-36641
OBJECT_ID      = 2026-018A
CENTER_NAME    = EARTH
REF_FRAME      = TEME
TIME_SYSTEM    = UTC
MEAN_ELEMENT_THEORY = SGP/SGP4

EPOCH          = 2026-02-10T22:00:00.999936
MEAN_MOTION    = 15.80861831
ECCENTRICITY   = .00013757
INCLINATION    = 97.2831
RA_OF_ASC_NODE = 106.3384
ARG_OF_PERICENTER = 95.4065
MEAN_ANOMALY   = 94.9095

EPHEMERIS_TYPE = 0
CLASSIFICATION_TYPE = U
NORAD_CAT_ID   = 67589
ELEMENT_SET_NO = 999
REV_AT_EPOCH   = 304
BSTAR          = -.34294262E-3
MEAN_MOTION_DOT = -.65479E-3
MEAN_MOTION_DDOT = 0

CCSDS_OMM_VERS = 2.0
CREATION_DATE  = 
ORIGINATOR     = 

OBJECT_NAME    = STARLINK-36376
OBJECT_ID      = 2026-018B
CENTER_NAME    = EARTH
REF_FRAME      = TEME
TIME_SYSTEM    = UTC
MEAN_ELEMENT_THEORY = SGP/SGP4

EPOCH          = 2026-02-10T22:00:00.999936
MEAN_MOTION    = 15.80837965
ECCENTRICITY   = .00013393
INCLINATION    = 97.2815
RA_OF_ASC_NODE = 106.3398
ARG_OF_PERICENTER = 98.1092
MEAN_ANOMALY   = 97.4180

EPHEMERIS_TYPE = 0
CLASSIFICATION_TYPE = U
NORAD_CAT_ID   = 67590
ELEMENT_SET_NO = 999
REV_AT_EPOCH   = 309
BSTAR          = -.30436122E-3
MEAN_MOTION_DOT = -.58113E-3
MEAN_MOTION_DDOT = 0

CCSDS_OMM_VERS = 2.0
CREATION_DATE  = 
ORIGINATOR     = 

OBJECT_NAME    = STARLINK-36391
OBJECT_ID      = 2026-018C
CENTER_NAME    = EARTH
REF_FRAME      = TEME
TIME_SYSTEM    = UTC
MEAN_ELEMENT_THEORY = SGP/SGP4

EPOCH          = 2026-02-10T22:00:00.999936
MEAN_MOTION    = 15.80840580
ECCENTRICITY   = .00014596
INCLINATION    = 97.2822
RA_OF_ASC_NODE = 106.3434
ARG_OF_PERICENTER = 83.8783
MEAN_ANOMALY   = 117.8498

EPHEMERIS_TYPE = 0
CLASSIFICATION_TYPE = U
NORAD_CAT_ID   = 67591
ELEMENT_SET_NO = 999
REV_AT_EPOCH   = 309
BSTAR          = .36910775E-4
MEAN_MOTION_DOT = .6942E-4
MEAN_MOTION_DDOT = 0

CCSDS_OMM_VERS = 2.0
CREATION_DATE  = 
ORIGINATOR     = 

OBJECT_NAME    = STARLINK-36603
OBJECT_ID      = 2026-018D
CENTER_NAME    = EARTH
REF_FRAME      = TEME
TIME_SYSTEM    = UTC
MEAN_ELEMENT_THEORY = SGP/SGP4

EPOCH          = 2026-02-10T22:00:00.999936
MEAN_MOTION    = 15.80831404
ECCENTRICITY   = .00013938
INCLINATION    = 97.2820
RA_OF_ASC_NODE = 106.3444
ARG_OF_PERICENTER = 78.6963
MEAN_ANOMALY   = 127.2820

EPHEMERIS_TYPE = 0
CLASSIFICATION_TYPE = U
NORAD_CAT_ID   = 67592
ELEMENT_SET_NO = 999
REV_AT_EPOCH   = 305
BSTAR          = -.1045911E-3
MEAN_MOTION_DOT = -.20144E-3
MEAN_MOTION_DDOT = 0

CCSDS_OMM_VERS = 2.0
CREATION_DATE  = 
ORIGINATOR     = 

OBJECT_NAME    = STARLINK-36634
OBJECT_ID      = 2026-018E
CENTER_NAME    = EARTH
REF_FRAME      = TEME
TIME_SYSTEM    = UTC
MEAN_ELEMENT_THEORY = SGP/SGP4

EPOCH          = 2026-02-10T22:00:00.999936
MEAN_MOTION    = 15.80806009
ECCENTRICITY   = .00013299
INCLINATION    = 97.2820
RA_OF_ASC_NODE = 106.3475
ARG_OF_PERICENTER = 68.6003
MEAN_ANOMALY   = 143.9356

EPHEMERIS_TYPE = 0
CLASSIFICATION_TYPE = U
NORAD_CAT_ID   = 67593
ELEMENT_SET_NO = 999
REV_AT_EPOCH   = 304
BSTAR          = .17857399E-3
MEAN_MOTION_DOT = .34182E-3
MEAN_MOTION_DDOT = 0

